[{"OBJECT_NAME":"STARLINK-4079","OBJECT_ID":"2022-053L","EPOCH":"2026-03-09T11:59:44.414304","MEAN_MOTION":15.08838912,"ECCENTRICITY":0.00013808,"INCLINATION":53.2168,"RA_OF_ASC_NODE":154.5879,"ARG_OF_PERICENTER":70.9549,"MEAN_ANOMALY":289.1592,"EPHEMERIS_TYPE":0,"CLASSIFICATION_TYPE":"U","NORAD_CAT_ID":52666,"ELEMENT_SET_NO":999,"REV_AT_EPOCH":21102,"BSTAR":2.346554e-5,"MEAN_MOTION_DOT":8.6e-7,"MEAN_MOTION_DDOT":0},{"OBJECT_NAME":"IRIDIUM 33 DEB","OBJECT_ID":"1997-051ACD","EPOCH":"2026-02-15T04:06:14.442336","MEAN_MOTION":15.0282309,"ECCENTRICITY":0.00183243,"INCLINATION":86.3384,"RA_OF_ASC_NODE":302.6959,"ARG_OF_PERICENTER":121.5358,"MEAN_ANOMALY":29.3036,"EPHEMERIS_TYPE":0,"CLASSIFICATION_TYPE":"U","NORAD_CAT_ID":46971,"ELEMENT_SET_NO":999,"REV_AT_EPOCH":65196,"BSTAR":0.0024316654,"MEAN_MOTION_DOT":0.00032805,"MEAN_MOTION_DDOT":0}]
